ONEWEB-0228             
1 48780U 21045P   24110.21019391  .00000090  00000+0  20539-3 0  9993
2 48780  87.9025  56.1820 0001793  81.6595 278.4739 13.15547253141727
